STARLINK-6362           
1 57350U 23099Y   26068.50905757 -.00002981  00000+0 -20567-3 0  9997
2 57350  43.0027 237.4225 0001940 274.0485  86.0135 15.02536260146236
2024-205C               
1 61896U 24205C   26067.20867002  .00012247  00000+0  67177-3 0  9995
2 61896  97.4204 141.0161 0044383 341.9375  18.0277 15.13448144 72971
